ONEWEB-0273             
1 48991U 21060AA  23269.87043339  .00000048  00000+0  92358-4 0  9991
2 48991  87.9012  66.6767 0001882  87.1522 272.9824 13.16593843108750
ONEWEB-0274             
1 48992U 21060AB  23270.42774519  .00000125  00000+0  29219-3 0  9997
2 48992  87.9014  66.5694 0002239 105.2071 254.9307 13.16594690110164
ONEWEB-0275             
1 48993U 21060AC  23270.41718949  .00000104  00000+0  23940-3 0  9994
2 48993  87.9004  66.5735 0001712  89.2049 270.9278 13.16591099110087
ONEWEB-0276             
1 48994U 21060AD  23269.99500053 -.00000059  00000+0 -18782-3 0  9990
2 48994  87.9014  66.6452 0002052  84.2482 275.8883 13.16593933110052
ONEWEB-0277             
1 48995U 21060AE  23269.93164169 -.00000313  00000+0 -85293-3 0  9993
2 48995  87.9116  66.6816 0002339  88.3695 271.7704 13.16593782110025
ONEWEB-0278             
1 48996U 21060AF  23269.99709616 -.00000023  00000+0 -92511-4 0  9992
2 48996  87.9014  66.6408 0001388  87.3224 272.8066 13.16593114110189
ONEWEB-0279             
1 48997U 21060AG  23269.85354539  .00000005  00000+0 -20095-4 0  9995
2 48997  87.9011  66.6676 0001751  92.8791 267.2541 13.16592484110082
ONEWEB-0280             
1 48998U 21060AH  23270.40031155 -.00000044  00000+0 -14890-3 0  9994
2 48998  87.9011  66.5585 0002490  89.3569 270.7847 13.16594081110089
